NORAD_CAT_ID,OBJECT_NAME,OBJECT_TYPE,EPOCH,MEAN_MOTION,ECCENTRICITY,INCLINATION,RA_OF_ASC_NODE,ARG_OF_PERICENTER,MEAN_ANOMALY,BSTAR,MEAN_MOTION_DOT,MEAN_MOTION_DDOT,TLE_LINE0,TLE_LINE1,TLE_LINE2,SEMIMAJOR_AXIS,PERIOD,APOGEE,PERIGEE,DECAYED
54800.0,STARLINK-5428,PAYLOAD,2024-07-25 21:50:03,15.08832748,0.0001437,53.2157,170.4958,97.7201,262.3955,6.9822e-05,8.23e-06,0.0,0 STARLINK-5428,1 54800U 22175AU  24207.90976049  .00000823  00000-0  69822-4 0  9997,2 54800  53.2157 170.4958 0001437  97.7201 262.3955 15.08832748 90723,6917.903,95.438,540.762,538.773,0.0
54800.0,STARLINK-5428,PAYLOAD,2024-07-26 04:11:35,15.08836879,0.000142,53.2162,169.3064,101.3185,258.7967,6.5454e-05,7.54e-06,0.0,0 STARLINK-5428,1 54800U 22175AU  24208.17471905  .00000754  00000-0  65454-4 0  9998,2 54800  53.2162 169.3064 0001420 101.3185 258.7967 15.08836879 88615,6917.89,95.438,540.737,538.773,0.0
54800.0,STARLINK-5428,PAYLOAD,2024-07-26 07:22:21,15.08838628,0.0001332,53.2156,168.7108,99.0114,261.1029,7.479e-05,9.03e-06,0.0,0 STARLINK-5428,1 54800U 22175AU  24208.30719770  .00000903  00000-0  74790-4 0  9997,2 54800  53.2156 168.7108 0001332  99.0114 261.1029 15.08838628 90789,6917.885,95.438,540.671,538.828,0.0
54800.0,STARLINK-5428,PAYLOAD,2024-07-27 04:02:22,15.08845992,0.000131,53.2159,164.8452,88.6349,271.4793,7.7018e-05,9.38e-06,0.0,0 STARLINK-5428,1 54800U 22175AU  24209.16831131  .00000938  00000-0  77018-4 0  9992,2 54800  53.2159 164.8452 0001310  88.6349 271.4793 15.08845992 88760,6917.862,95.437,540.633,538.821,0.0
54800.0,STARLINK-5428,PAYLOAD,2024-07-27 21:31:38,15.08829954,0.0001328,53.2172,161.5748,87.2278,272.8866,-6.5498e-05,-1.33e-05,0.0,0 STARLINK-5428,1 54800U 22175AU  24209.89696779 -.00001330  00000-0 -65498-4 0  9997,2 54800  53.2172 161.5748 0001328  87.2278 272.8866 15.08829954 91021,6917.911,95.438,540.695,538.857,0.0
54800.0,STARLINK-5428,PAYLOAD,2024-07-28 03:53:10,15.08827054,0.0001197,53.2169,160.3865,83.64,276.4728,-4.0041e-05,-9.25e-06,0.0,0 STARLINK-5428,1 54800U 22175AU  24210.16192999 -.00000925  00000-0 -40041-4 0  9990,2 54800  53.2169 160.3865 0001197  83.6400 276.4728 15.08827054 88915,6917.92,95.438,540.613,538.957,0.0
54800.0,STARLINK-5428,PAYLOAD,2024-07-28 21:22:24,15.08854045,0.0001143,53.2161,157.114,85.0884,275.0239,-0.00023178,-3.976e-05,0.0,0 STARLINK-5428,1 54800U 22175AU  24210.89056683 -.00003976  00000-0 -23178-3 0  9999,2 54800  53.2161 157.1140 0001143  85.0884 275.0239 15.08854045 89025,6917.837,95.437,540.493,538.912,0.0
54800.0,STARLINK-5428,PAYLOAD,2024-07-29 13:16:15,15.08842367,0.0001241,53.2166,154.1425,89.8768,270.2366,-1.5311e-05,-5.32e-06,0.0,0 STARLINK-5428,1 54800U 22175AU  24211.55296197 -.00000532  00000-0 -15311-4 0  9995,2 54800  53.2166 154.1425 0001241  89.8768 270.2366 15.08842367 91277,6917.873,95.437,540.597,538.88,0.0
54800.0,STARLINK-5428,PAYLOAD,2024-07-30 03:34:44,15.08833394,0.0001452,53.2167,151.465,79.5017,280.6138,0.00012177,1.65e-05,0.0,0 STARLINK-5428,1 54800U 22175AU  24212.14912795  .00001650  00000-0  12177-3 0  9996,2 54800  53.2167 151.4650 0001452  79.5017 280.6138 15.08833394 89218,6917.901,95.438,540.77,538.761,0.0
54800.0,STARLINK-5428,PAYLOAD,2024-07-30 13:07:03,15.08837423,0.0001437,53.2163,149.6813,79.61,280.5054,9.5223e-05,1.228e-05,0.0,0 STARLINK-5428,1 54800U 22175AU  24212.54656746  .00001228  00000-0  95223-4 0  9996,2 54800  53.2163 149.6813 0001437  79.6100 280.5054 15.08837423 91420,6917.888,95.438,540.747,538.759,0.0
54800.0,STARLINK-5428,PAYLOAD,2024-07-31 03:25:30,15.08851393,0.0001518,53.2172,147.0048,80.8936,279.2228,7.8835e-05,9.67e-06,0.0,0 STARLINK-5428,1 54800U 22175AU  24213.14271889  .00000967  00000-0  78835-4 0  9993,2 54800  53.2172 147.0048 0001518  80.8936 279.2228 15.08851393 91513,6917.846,95.437,540.761,538.66,0.0
54800.0,STARLINK-5428,PAYLOAD,2024-07-31 19:19:23,15.08835386,0.0001503,53.2156,144.0338,91.1058,269.0106,3.7414e-05,3.07e-06,0.0,0 STARLINK-5428,1 54800U 22175AU  24213.80512827  .00000307  00000-0  37414-4 0  9992,2 54800  53.2156 144.0338 0001503  91.1058 269.0106 15.08835386 89465,6917.894,95.438,540.799,538.72,0.0
54800.0,STARLINK-5428,PAYLOAD,2024-08-01 01:40:55,15.08835649,0.0001488,53.216,142.8423,97.1366,262.9795,3.2451e-05,2.28e-06,0.0,0 STARLINK-5428,1 54800U 22175AU  24214.07008870  .00000228  00000-0  32451-4 0  9998,2 54800  53.2160 142.8423 0001488  97.1366 262.9795 15.08835649 91653,6917.894,95.438,540.788,538.729,0.0
54800.0,STARLINK-5428,PAYLOAD,2024-08-01 19:10:09,15.08845467,0.0001419,53.2158,139.5707,97.1928,262.9226,2.5859e-05,1.24e-06,0.0,0 STARLINK-5428,1 54800U 22175AU  24214.79872122  .00000124  00000-0  25859-4 0  9995,2 54800  53.2158 139.5707 0001419  97.1928 262.9226 15.08845467 89617,6917.864,95.437,540.71,538.747,0.0
54800.0,STARLINK-5428,PAYLOAD,2024-08-01 22:20:55,15.08847146,0.0001491,53.2155,138.9763,95.774,264.3422,5.0942e-05,5.23e-06,0.0,0 STARLINK-5428,1 54800U 22175AU  24214.93119897  .00000523  00000-0  50942-4 0  9998,2 54800  53.2155 138.9763 0001491  95.7740 264.3422 15.08847146 91786,6917.859,95.437,540.755,538.692,0.0
54800.0,STARLINK-5428,PAYLOAD,2024-08-02 01:31:41,15.08851424,0.0001518,53.2158,138.3809,97.2618,262.8547,8.3906e-05,1.048e-05,0.0,0 STARLINK-5428,1 54800U 22175AU  24215.06367471  .00001048  00000-0  83906-4 0  9995,2 54800  53.2158 138.3809 0001518  97.2618 262.8547 15.08851424 89653,6917.845,95.437,540.761,538.66,0.0
54800.0,STARLINK-5428,PAYLOAD,2024-08-02 22:11:43,15.08830038,0.0001383,53.2158,134.5158,98.7681,261.3468,1.7384e-05,-1.1e-07,0.0,0 STARLINK-5428,1 54800U 22175AU  24215.92481245 -.00000011  00000-0  17384-4 0  9993,2 54800  53.2158 134.5158 0001383  98.7681 261.3468 15.08830038 91932,6917.911,95.438,540.733,538.819,0.0
54800.0,STARLINK-5428,PAYLOAD,2024-08-03 04:33:16,15.08834724,0.0001289,53.2159,133.3263,92.1861,267.9279,1.6418e-05,-2.7e-07,0.0,0 STARLINK-5428,1 54800U 22175AU  24216.18977148 -.00000027  00000-0  16418-4 0  9998,2 54800  53.2159 133.3263 0001289  92.1861 267.9279 15.08834724 89823,6917.897,95.438,540.653,538.87,0.0
54800.0,STARLINK-5428,PAYLOAD,2024-08-03 22:02:30,15.08848302,0.0001239,53.2164,130.0543,89.5273,270.5861,2.893e-05,1.73e-06,0.0,0 STARLINK-5428,1 54800U 22175AU  24216.91840468  .00000173  00000-0  28930-4 0  9996,2 54800  53.2164 130.0543 0001239  89.5273 270.5861 15.08848302 92082,6917.855,95.437,540.577,538.863,0.0
54800.0,STARLINK-5428,PAYLOAD,2024-08-04 04:24:01,15.0885658,0.0001207,53.216,128.8642,93.4804,266.6326,0.0001203,1.628e-05,0.0,0 STARLINK-5428,1 54800U 22175AU  24217.18335568  .00001628  00000-0  12030-3 0  9995,2 54800  53.2160 128.8642 0001207  93.4804 266.6326 15.08856580 89975,6917.83,95.437,540.53,538.86,0.0
54800.0,STARLINK-5428,PAYLOAD,2024-08-04 10:45:34,15.08857871,0.0001282,53.2172,127.6758,88.9599,271.154,7.3129e-05,8.77e-06,0.0,0 STARLINK-5428,1 54800U 22175AU  24217.44831497  .00000877  00000-0  73129-4 0  9998,2 54800  53.2172 127.6758 0001282  88.9599 271.1540 15.08857871 92164,6917.826,95.436,540.578,538.804,0.0
54800.0,STARLINK-5428,PAYLOAD,2024-08-04 18:42:31,15.08841986,0.0002266,53.2167,126.1888,80.6004,279.5244,0.00015401,2.164e-05,0.0,0 STARLINK-5428,1 54800U 22175AU  24217.77952869  .00002164  00000-0  15401-3 0  9990,2 54800  53.2167 126.1888 0002266  80.6004 279.5244 15.08841986 90069,6917.874,95.437,541.307,538.172,0.0
54800.0,STARLINK-5428,PAYLOAD,2024-08-04 21:53:17,15.08846431,0.000168,53.2167,125.5921,106.8927,253.225,0.00022162,3.241e-05,0.0,0 STARLINK-5428,1 54800U 22175AU  24217.91200343  .00003241  00000-0  22162-3 0  9998,2 54800  53.2167 125.5921 0001680 106.8927 253.2250 15.08846431 92231,6917.861,95.437,540.888,538.564,0.0
54800.0,STARLINK-5428,PAYLOAD,2024-08-05 21:44:05,15.08817335,0.0001475,53.2159,121.1305,63.6795,296.4349,-0.00040428,-6.712e-05,0.0,0 STARLINK-5428,1 54800U 22175AU  24218.90562285 -.00006712  00000-0 -40428-3 0  9997,2 54800  53.2159 121.1305 0001475  63.6795 296.4349 15.08817335 90232,6917.95,95.439,540.835,538.794,0.0
54800.0,STARLINK-5428,PAYLOAD,2024-08-06 00:54:52,15.0882131,0.0001846,53.2173,120.5375,81.9255,278.1947,-0.00030149,-5.081e-05,0.0,0 STARLINK-5428,1 54800U 22175AU  24219.03810353 -.00005081  00000-0 -30149-3 0  9991,2 54800  53.2173 120.5375 0001846  81.9255 278.1947 15.08821310 92404,6917.938,95.439,541.08,538.525,0.0
54800.0,STARLINK-5428,PAYLOAD,2024-08-06 16:48:43,15.08839553,0.0002068,53.2177,117.5645,79.6958,280.4267,8.6987e-05,1.096e-05,0.0,0 STARLINK-5428,1 54800U 22175AU  24219.70049889  .00001096  00000-0  86987-4 0  9995,2 54800  53.2177 117.5645 0002068  79.6958 280.4267 15.08839553 90356,6917.882,95.438,541.177,538.316,0.0
54800.0,STARLINK-5428,PAYLOAD,2024-08-06 21:34:52,15.08849298,0.0001668,53.2161,116.6763,86.1086,274.0096,0.00046124,7.062e-05,0.0,0 STARLINK-5428,1 54800U 22175AU  24219.89921558  .00007062  00000-0  46124-3 0  9994,2 54800  53.2161 116.6763 0001668  86.1086 274.0096 15.08849298 92538,6917.852,95.437,540.871,538.563,0.0
54800.0,STARLINK-5428,PAYLOAD,2024-08-07 02:21:01,15.08875668,0.0001553,53.2155,115.7838,80.4094,279.7073,0.0017336,0.00027437,0.0,0 STARLINK-5428,1 54800U 22175AU  24220.09793505  .00027437  00000-0  17336-2 0  9997,2 54800  53.2155 115.7838 0001553  80.4094 279.7073 15.08875668 90415,6917.771,95.435,540.711,538.562,0.0
54800.0,STARLINK-5428,PAYLOAD,2024-08-08 02:11:48,15.08869263,0.0001359,53.2149,111.3215,101.9833,258.1312,0.0014404,0.00022729,0.0,0 STARLINK-5428,1 54800U 22175AU  24221.09152805  .00022729  00000-0  14404-2 0  9992,2 54800  53.2149 111.3215 0001359 101.9833 258.1312 15.08869263 92719,6917.791,95.436,540.596,538.716,0.0
54800.0,STARLINK-5428,PAYLOAD,2024-08-08 22:51:48,15.0885337,0.0001521,53.2151,107.4569,88.8648,271.2519,0.0014335,0.00022608,0.0,0 STARLINK-5428,1 54800U 22175AU  24221.95264960  .00022608  00000-0  14335-2 0  9992,2 54800  53.2151 107.4569 0001521  88.8648 271.2519 15.08853370 90690,6917.84,95.437,540.757,538.652,0.0
